[
  {
    "OBJECT_NAME": "STARLINK-31967",
    "OBJECT_ID": "24111F",
    "EPOCH": "2025-11-11T05:58:03.503424",
    "MEAN_MOTION": 15.3013648,
    "ECCENTRICITY": 0.0001452,
    "INCLINATION": 53.1609,
    "RA_OF_ASC_NODE": 265.486,
    "ARG_OF_PERICENTER": 116.0044,
    "MEAN_ANOMALY": 244.1107,
    "EPHEMERIS_TYPE": 0,
    "CLASSIFICATION_TYPE": "U",
    "NORAD_CAT_ID": 60021,
    "ELEMENT_SET_NO": 999,
    "REV_AT_EPOCH": 8091,
    "BSTAR": 0.00028114,
    "MEAN_MOTION_DOT": 7.96e-05,
    "MEAN_MOTION_DDOT": 0.0,
    "TLE_LINE1": "1 60021U 24111F   25315.24865166  .00007960  00000+0  28114-3 0  9992",
    "TLE_LINE2": "2 60021  53.1609 265.4860 0001452 116.0044 244.1107 15.30136480 80912",
    "COMMENT": "Grouped by shell and plane from TLE"
  },
  {
    "OBJECT_NAME": "STARLINK-31982",
    "OBJECT_ID": "24111G",
    "EPOCH": "2025-11-11T05:48:56.193984",
    "MEAN_MOTION": 15.30174141,
    "ECCENTRICITY": 0.0001583,
    "INCLINATION": 53.1624,
    "RA_OF_ASC_NODE": 265.4515,
    "ARG_OF_PERICENTER": 100.7092,
    "MEAN_ANOMALY": 259.4087,
    "EPHEMERIS_TYPE": 0,
    "CLASSIFICATION_TYPE": "U",
    "NORAD_CAT_ID": 60022,
    "ELEMENT_SET_NO": 999,
    "REV_AT_EPOCH": 8091,
    "BSTAR": 0.00033401,
    "MEAN_MOTION_DOT": 9.538e-05,
    "MEAN_MOTION_DDOT": 0.0,
    "TLE_LINE1": "1 60022U 24111G   25315.24231706  .00009538  00000+0  33401-3 0  9998",
    "TLE_LINE2": "2 60022  53.1624 265.4515 0001583 100.7092 259.4087 15.30174141 80917",
    "COMMENT": "Grouped by shell and plane from TLE"
  },
  {
    "OBJECT_NAME": "STARLINK-31992",
    "OBJECT_ID": "24111H",
    "EPOCH": "2025-11-11T04:31:48.954720",
    "MEAN_MOTION": 15.29406108,
    "ECCENTRICITY": 0.0001354,
    "INCLINATION": 53.1619,
    "RA_OF_ASC_NODE": 265.8265,
    "ARG_OF_PERICENTER": 88.4743,
    "MEAN_ANOMALY": 271.6413,
    "EPHEMERIS_TYPE": 0,
    "CLASSIFICATION_TYPE": "U",
    "NORAD_CAT_ID": 60023,
    "ELEMENT_SET_NO": 999,
    "REV_AT_EPOCH": 8090,
    "BSTAR": 0.0013241,
    "MEAN_MOTION_DOT": 0.00038106,
    "MEAN_MOTION_DDOT": 0.0,
    "TLE_LINE1": "1 60023U 24111H   25315.18876105  .00038106  00000+0  13241-2 0  9992",
    "TLE_LINE2": "2 60023  53.1619 265.8265 0001354  88.4743 271.6413 15.29406108 80906",
    "COMMENT": "Grouped by shell and plane from TLE"
  },
  {
    "OBJECT_NAME": "STARLINK-31990",
    "OBJECT_ID": "24111J",
    "EPOCH": "2025-11-11T06:31:28.466400",
    "MEAN_MOTION": 15.30202549,
    "ECCENTRICITY": 0.0001388,
    "INCLINATION": 53.1607,
    "RA_OF_ASC_NODE": 265.6319,
    "ARG_OF_PERICENTER": 100.4563,
    "MEAN_ANOMALY": 259.6594,
    "EPHEMERIS_TYPE": 0,
    "CLASSIFICATION_TYPE": "U",
    "NORAD_CAT_ID": 60024,
    "ELEMENT_SET_NO": 999,
    "REV_AT_EPOCH": 8090,
    "BSTAR": 0.00012556999999999998,
    "MEAN_MOTION_DOT": 3.362e-05,
    "MEAN_MOTION_DDOT": 0.0,
    "TLE_LINE1": "1 60024U 24111J   25315.27185725  .00003362  00000+0  12557-3 0  9990",
    "TLE_LINE2": "2 60024  53.1607 265.6319 0001388 100.4563 259.6594 15.30202549 80905",
    "COMMENT": "Grouped by shell and plane from TLE"
  },
  {
    "OBJECT_NAME": "STARLINK-31939",
    "OBJECT_ID": "24111L",
    "EPOCH": "2025-11-11T04:37:39.381024",
    "MEAN_MOTION": 15.30196292,
    "ECCENTRICITY": 9.89e-05,
    "INCLINATION": 53.1617,
    "RA_OF_ASC_NODE": 265.8504,
    "ARG_OF_PERICENTER": 104.9947,
    "MEAN_ANOMALY": 255.1164,
    "EPHEMERIS_TYPE": 0,
    "CLASSIFICATION_TYPE": "U",
    "NORAD_CAT_ID": 60026,
    "ELEMENT_SET_NO": 999,
    "REV_AT_EPOCH": 8089,
    "BSTAR": 1.2373000000000002e-05,
    "MEAN_MOTION_DOT": 7e-08,
    "MEAN_MOTION_DDOT": 0.0,
    "TLE_LINE1": "1 60026U 24111L   25315.19281691  .00000007  00000+0  12373-4 0  9992",
    "TLE_LINE2": "2 60026  53.1617 265.8504 0000989 104.9947 255.1164 15.30196292 80896",
    "COMMENT": "Grouped by shell and plane from TLE"
  },
  {
    "OBJECT_NAME": "STARLINK-32012",
    "OBJECT_ID": "24111M",
    "EPOCH": "2025-11-11T03:08:10.379616",
    "MEAN_MOTION": 15.30186084,
    "ECCENTRICITY": 0.000122,
    "INCLINATION": 53.1604,
    "RA_OF_ASC_NODE": 266.1691,
    "ARG_OF_PERICENTER": 97.7967,
    "MEAN_ANOMALY": 262.3173,
    "EPHEMERIS_TYPE": 0,
    "CLASSIFICATION_TYPE": "U",
    "NORAD_CAT_ID": 60027,
    "ELEMENT_SET_NO": 999,
    "REV_AT_EPOCH": 8088,
    "BSTAR": 4.8341000000000004e-05,
    "MEAN_MOTION_DOT": 1.072e-05,
    "MEAN_MOTION_DDOT": 0.0,
    "TLE_LINE1": "1 60027U 24111M   25315.13067569  .00001072  00000+0  48341-4 0  9990",
    "TLE_LINE2": "2 60027  53.1604 266.1691 0001220  97.7967 262.3173 15.30186084 80881",
    "COMMENT": "Grouped by shell and plane from TLE"
  },
  {
    "OBJECT_NAME": "STARLINK-32008",
    "OBJECT_ID": "24111N",
    "EPOCH": "2025-11-11T06:22:21.341856",
    "MEAN_MOTION": 15.3018176,
    "ECCENTRICITY": 0.0001538,
    "INCLINATION": 53.1611,
    "RA_OF_ASC_NODE": 265.5901,
    "ARG_OF_PERICENTER": 86.2026,
    "MEAN_ANOMALY": 273.9151,
    "EPHEMERIS_TYPE": 0,
    "CLASSIFICATION_TYPE": "U",
    "NORAD_CAT_ID": 60028,
    "ELEMENT_SET_NO": 999,
    "REV_AT_EPOCH": 8090,
    "BSTAR": 0.00021833,
    "MEAN_MOTION_DOT": 6.109e-05,
    "MEAN_MOTION_DDOT": 0.0,
    "TLE_LINE1": "1 60028U 24111N   25315.26552479  .00006109  00000+0  21833-3 0  9996",
    "TLE_LINE2": "2 60028  53.1611 265.5901 0001538  86.2026 273.9151 15.30181760 80901",
    "COMMENT": "Grouped by shell and plane from TLE"
  },
  {
    "OBJECT_NAME": "STARLINK-32006",
    "OBJECT_ID": "24111P",
    "EPOCH": "2025-11-11T06:36:01.718496",
    "MEAN_MOTION": 15.30196742,
    "ECCENTRICITY": 0.0001252,
    "INCLINATION": 53.1607,
    "RA_OF_ASC_NODE": 265.654,
    "ARG_OF_PERICENTER": 82.4636,
    "MEAN_ANOMALY": 277.6507,
    "EPHEMERIS_TYPE": 0,
    "CLASSIFICATION_TYPE": "U",
    "NORAD_CAT_ID": 60029,
    "ELEMENT_SET_NO": 999,
    "REV_AT_EPOCH": 8090,
    "BSTAR": 6.1858e-05,
    "MEAN_MOTION_DOT": 1.473e-05,
    "MEAN_MOTION_DDOT": 0.0,
    "TLE_LINE1": "1 60029U 24111P   25315.27501989  .00001473  00000+0  61858-4 0  9999",
    "TLE_LINE2": "2 60029  53.1607 265.6540 0001252  82.4636 277.6507 15.30196742 80907",
    "COMMENT": "Grouped by shell and plane from TLE"
  },
  {
    "OBJECT_NAME": "STARLINK-32011",
    "OBJECT_ID": "24111Q",
    "EPOCH": "2025-11-11T05:51:58.228416",
    "MEAN_MOTION": 15.30187514,
    "ECCENTRICITY": 0.0001286,
    "INCLINATION": 53.1619,
    "RA_OF_ASC_NODE": 265.4661,
    "ARG_OF_PERICENTER": 94.8496,
    "MEAN_ANOMALY": 265.2652,
    "EPHEMERIS_TYPE": 0,
    "CLASSIFICATION_TYPE": "U",
    "NORAD_CAT_ID": 60030,
    "ELEMENT_SET_NO": 999,
    "REV_AT_EPOCH": 8090,
    "BSTAR": 4.8273000000000004e-05,
    "MEAN_MOTION_DOT": 1.07e-05,
    "MEAN_MOTION_DDOT": 0.0,
    "TLE_LINE1": "1 60030U 24111Q   25315.24442394  .00001070  00000+0  48273-4 0  9991",
    "TLE_LINE2": "2 60030  53.1619 265.4661 0001286  94.8496 265.2652 15.30187514 80903",
    "COMMENT": "Grouped by shell and plane from TLE"
  },
  {
    "OBJECT_NAME": "STARLINK-32017",
    "OBJECT_ID": "24111S",
    "EPOCH": "2025-11-11T06:42:07.604352",
    "MEAN_MOTION": 15.3018091,
    "ECCENTRICITY": 0.0001171,
    "INCLINATION": 53.1602,
    "RA_OF_ASC_NODE": 265.7007,
    "ARG_OF_PERICENTER": 78.3276,
    "MEAN_ANOMALY": 281.7856,
    "EPHEMERIS_TYPE": 0,
    "CLASSIFICATION_TYPE": "U",
    "NORAD_CAT_ID": 60032,
    "ELEMENT_SET_NO": 999,
    "REV_AT_EPOCH": 8090,
    "BSTAR": 1.9975e-05,
    "MEAN_MOTION_DOT": 2.32e-06,
    "MEAN_MOTION_DDOT": 0.0,
    "TLE_LINE1": "1 60032U 24111S   25315.27925468  .00000232  00000+0  19975-4 0  9990",
    "TLE_LINE2": "2 60032  53.1602 265.7007 0001171  78.3276 281.7856 15.30180910 80902",
    "COMMENT": "Grouped by shell and plane from TLE"
  },
  {
    "OBJECT_NAME": "STARLINK-32005",
    "OBJECT_ID": "24111U",
    "EPOCH": "2025-11-11T06:26:54.414240",
    "MEAN_MOTION": 15.30187062,
    "ECCENTRICITY": 0.0001798,
    "INCLINATION": 53.1619,
    "RA_OF_ASC_NODE": 265.614,
    "ARG_OF_PERICENTER": 76.5724,
    "MEAN_ANOMALY": 283.5477,
    "EPHEMERIS_TYPE": 0,
    "CLASSIFICATION_TYPE": "U",
    "NORAD_CAT_ID": 60034,
    "ELEMENT_SET_NO": 999,
    "REV_AT_EPOCH": 8080,
    "BSTAR": 0.00011734999999999999,
    "MEAN_MOTION_DOT": 3.116e-05,
    "MEAN_MOTION_DDOT": 0.0,
    "TLE_LINE1": "1 60034U 24111U   25315.26868535  .00003116  00000+0  11735-3 0  9991",
    "TLE_LINE2": "2 60034  53.1619 265.6140 0001798  76.5724 283.5477 15.30187062 80805",
    "COMMENT": "Grouped by shell and plane from TLE"
  },
  {
    "OBJECT_NAME": "STARLINK-31981",
    "OBJECT_ID": "24111V",
    "EPOCH": "2025-11-11T06:54:18.761760",
    "MEAN_MOTION": 15.30138828,
    "ECCENTRICITY": 0.000179,
    "INCLINATION": 53.1599,
    "RA_OF_ASC_NODE": 265.7286,
    "ARG_OF_PERICENTER": 91.2839,
    "MEAN_ANOMALY": 268.8367,
    "EPHEMERIS_TYPE": 0,
    "CLASSIFICATION_TYPE": "U",
    "NORAD_CAT_ID": 60035,
    "ELEMENT_SET_NO": 999,
    "REV_AT_EPOCH": 8083,
    "BSTAR": 0.0008687,
    "MEAN_MOTION_DOT": 0.00025409,
    "MEAN_MOTION_DDOT": 0.0,
    "TLE_LINE1": "1 60035U 24111V   25315.28771715  .00025409  00000+0  86870-3 0  9998",
    "TLE_LINE2": "2 60035  53.1599 265.7286 0001790  91.2839 268.8367 15.30138828 80831",
    "COMMENT": "Grouped by shell and plane from TLE"
  },
  {
    "OBJECT_NAME": "STARLINK-31985",
    "OBJECT_ID": "24111W",
    "EPOCH": "2025-11-11T03:41:36.065760",
    "MEAN_MOTION": 15.30201136,
    "ECCENTRICITY": 0.000128,
    "INCLINATION": 53.1603,
    "RA_OF_ASC_NODE": 266.3141,
    "ARG_OF_PERICENTER": 108.348,
    "MEAN_ANOMALY": 251.766,
    "EPHEMERIS_TYPE": 0,
    "CLASSIFICATION_TYPE": "U",
    "NORAD_CAT_ID": 60036,
    "ELEMENT_SET_NO": 999,
    "REV_AT_EPOCH": 8082,
    "BSTAR": 3.1629000000000005e-05,
    "MEAN_MOTION_DOT": 5.78e-06,
    "MEAN_MOTION_DDOT": 0.0,
    "TLE_LINE1": "1 60036U 24111W   25315.15388965  .00000578  00000+0  31629-4 0  9999",
    "TLE_LINE2": "2 60036  53.1603 266.3141 0001280 108.3480 251.7660 15.30201136 80820",
    "COMMENT": "Grouped by shell and plane from TLE"
  }
]